STARLINK-3682           
1 52140U 22029BE  26068.38441111  .00000541  00000+0  52078-4 0  9997
2 52140  53.2170  70.4893 0001435  76.5583 283.5569 15.08848073220893
2024-205L               
1 61904U 24205L   26066.14074752  .00013606  00000+0  79283-3 0  9990
2 61904  97.4213 140.2188 0054772 346.2042  13.7688 15.10822925 72825
